#cP2008  6 28  0  0  0.00000000      96 ORBIT IGS05 HLM  IGS
## 1485 518400.00000000   900.00000000 54645 0.0000000000000
+   31   G02G03G04G05G06G07G08G09G10G11G12G13G14G15G16G17G18
+        G19G20G21G22G23G24G25G26G27G28G29G30G31G32  0  0  0
+          0  0  0  0  0  0  0  0  0  0  0  0  0  0  0  0  0
+          0  0  0  0  0  0  0  0  0  0  0  0  0  0  0  0  0
+          0  0  0  0  0  0  0  0  0  0  0  0  0  0  0  0  0
++         3  3  2  2  2  3  2  2  3  2  2  3  2  3  2  2  2
++         2  2  3  2  2  2  2  2  2  3  2  2  2  3  0  0  0
++         0  0  0  0  0  0  0  0  0  0  0  0  0  0  0  0  0
++         0  0  0  0  0  0  0  0  0  0  0  0  0  0  0  0  0
++         0  0  0  0  0  0  0  0  0  0  0  0  0  0  0  0  0
%c G  cc GPS ccc cccc cccc cccc cccc ccccc ccccc ccccc ccccc
%c cc cc ccc ccc cccc cccc cccc cccc ccccc ccccc ccccc ccccc
%f  1.2500000  1.025000000  0.00000000000  0.000000000000000
%f  0.0000000  0.000000000  0.00000000000  0.000000000000000
%i    0    0    0    0      0      0      0      0         0
%i    0    0    0    0      0      0      0      0         0
/* FINAL ORBIT COMBINATION FROM WEIGHTED AVERAGE OF:        
/* cod emr esa gfz grg jpl mit ngs sio                      
/* REFERENCED TO IGS TIME (IGST) AND TO WEIGHTED MEAN POLE: 
/* PCV:IGS05_1480 OL/AL:FES2004  NONE     Y  ORB:CMB CLK:CMB
*  2008  6 28 10 30  0.00000000
PG02  22328.668369 -13095.118599   4869.524905    204.914674  9  7  6 101       
PG03 -11345.923887  18947.427586  14237.568548    248.201278  6  4  5 137       
PG04  25567.717960  -5904.112182  -5317.752705   -101.886195  3  5  6 146       
PG05 -10588.215042 -19601.784416 -14840.814645   -378.037042  7  7  5  85       
PG06 -14333.070814  14343.999110  17361.245808    154.488283  6  5  5 110       
PG07  11762.640781  11062.234276  21072.207387    -12.935474  9  5  6 131       
PG08  22109.894337   2768.852569  14728.304456   -159.442561  7  5  7 112       
PG09   4529.864464 -17206.787987 -20310.192905      2.811590 10  7  6 130       
PG10  12603.125654  -8967.214741  21486.023942     -2.520886  6  6  8  80       
PG11    -43.416704  18482.734666 -19132.408996     24.139213  7  8  8 109       
PG12  -5492.669285 -19459.129946 -17185.339731   -357.930059  7  6  8 116       
PG13   7125.389034  19548.060279  16396.713364    261.662365 10  5  7 115       
PG14 -14369.339305  -2286.513519 -22120.479430   -250.352790  9  7  7 148       
PG15   7162.783398 -24959.130054   5581.428039   -133.898318  5  3  7  96       
PG16 -16716.972398   4480.082071  20272.906139    119.368689  7  3  6 141       
PG17  15123.991920   1829.156038 -21712.238237     38.597066  5  5  5 134       
PG18 -19445.035701 -18289.523950   2089.256968   -162.489080  8  7  4  96       
PG19  -8456.774876  24681.430774   4476.026019     32.748205  7  6  4 170       
PG20   7026.160673  19912.677937 -16247.989184    111.149379  5  6  6 152       
PG21 -17458.438854  -8164.568244  18716.742643     59.831459  7  7  7 141       
PG22 -22544.136652  -9183.637023 -10539.580565    211.494608  8  5  5 126       
PG23    507.754451  25694.559389   6088.887661    361.678445  6  4  6 125       
PG24  -2055.673767 -15553.153976  21619.528763    105.334227  5  5  3 121       
PG25   4637.513640  14733.628052  21977.246692   -178.122545  6  3  8 117       
PG26   9977.645980 -22530.658802   8663.180650    282.499632  6  6  6 135       
PG27  14347.913728   9180.510845  21088.275969    198.884198  6  3  7  79       
PG28  22658.818888  10820.300801  -8767.954729    -20.491097 10  8  9 109       
PG29  -6240.075210 -21927.891521  13771.172118    -42.201119  7  6  5 141       
PG30 -16778.138959 -19160.919172  -8061.203359     83.337229  8  7  8 121       
PG31 -25226.266909   7576.575714  -3660.846395    -24.918628  8  6  5  71       
PG32  -2296.725409  16726.836449 -20137.156025    302.282753  6  7  8 166       
*  2008  6 28 10 45  0.00000000
PG02  22846.476666 -12966.954859   2065.750114    204.913357  9  6  6 104       
PG03 -11618.129530  17143.244899  16172.637513    248.206261  6  4  6 138       
PG04  24989.508681  -5367.148725  -7978.986516   -101.894399  4  5  6 146       
PG05  -8975.872692 -18863.837500 -16758.353215   -378.025045  7  7  6  99       
PG06 -14372.168626  12292.605497  18853.249324    154.492442  6  5  5 101       
PG07   9543.097597  12093.190794  21613.268221    -12.929755  9  4  6 131       
PG08  20471.890503   3506.318095  16744.608540   -159.445010  7  5  6 113       
PG09   6484.438250 -18048.692694 -18947.918753      2.812686  9  7  6 118       
PG10  14518.608897  -7442.835856  20882.995789     -2.521645  5  6  8  81       
PG11  -1909.849183  19527.473737 -17922.176004     24.138812  7  8  8 106       
PG12  -3742.996503 -18344.378411 -18789.385777   -357.929644  6  5  8 124       
PG13   6739.743711  21278.246179  14286.847530    261.664039 10  4  7 125       
PG14 -14017.076997  -4797.643874 -21953.657259   -250.348611  9  6  7 146       
PG15   7338.564388 -24147.448306   8281.363497   -133.904195  5  3  6  92       
PG16 -18434.816187   3058.686129  19022.657986    119.367158  7  3  5 138       
PG17  14822.941110   4297.378478 -21585.896534     38.597259  5  5  3 136       
PG18 -18990.742640 -18262.611064   4860.554806   -162.485322  8  6  3  96       
PG19  -8606.163715  23980.579532   7229.023366     32.748649  7  6  4 171       
PG20   5337.891516  18940.634486 -17969.999865    111.148817  6  6  6 154       
PG21 -15500.275417  -9093.447546  19929.113363     59.829832  7  7  7 140       
PG22 -23222.186614 -10067.483446  -7995.506456    211.494099  8  5  5 142       
PG23    208.624929  26210.990173   3264.670778    361.680194  6  3  6 123       
PG24    207.840271 -16380.107564  21119.897212    105.337302  5  6  3 122       
PG25   2522.670921  15888.288381  21520.572859   -178.127778  6  3  7 119       
PG26   9982.125072 -21295.458200  11292.338338    282.505720  5  6  6 136       
PG27  12315.059474  10283.990010  21863.442358    198.886146  5  2  7  76       
PG28  23232.052268  11533.140650  -6096.064423    -20.491442 10  8  9 116       
PG29  -5854.148763 -23315.244134  11448.001567    -42.200792  7  6  5 142       
PG30 -15790.296035 -18795.807065 -10611.990262     83.338042  8  7  8 116       
PG31 -24769.833281   7129.685628  -6447.352010    -24.919705  9  6  5  99       
PG32  -4181.035575  15184.091544 -21003.480721    302.285961  6  7  9 169       
*  2008  6 28 11  0  0.00000000
PG02  23084.388923 -12715.427279   -774.442216    204.911848  9  6  6 105       
PG03 -11983.191505  15149.652986  17820.291190    248.211107  6  4  6 136       
PG04  24179.477075  -4671.762027 -10506.173304   -101.903112  4  5  6 148       
PG05  -7153.611278 -18115.734658 -18394.581737   -378.013209  7  8  6  64       
PG06 -14508.569425  10097.234240  20026.034930    154.497405  6  5  5 102       
PG07   7344.163718  13257.789503  21781.653107    -12.923775  8  3  5 131       
PG08  18682.753032   4424.476758  18476.565984   -159.446341  6  4  7 106       
PG09   8247.745991 -18915.222292 -17273.853307      2.813766  9  7  6 124       
PG10  16434.968537  -6073.211077  19918.208325     -2.520829  5  6  8  90       
PG11  -3615.417762  20555.054964 -16404.023213     24.138133  7  7  7 107       
PG12  -1798.451125 -17234.029714 -20068.811121   -357.929107  6  5  8 118       
PG13   6478.160041  22773.423616  11929.456328    261.665513  9  3  7 130       
PG14 -13809.959256  -7282.832117 -21405.877445   -250.344641  9  6  7 147       
PG15   7545.044810 -23048.743211  10838.798146   -133.909478  4  3  5 109       
PG16 -20092.924332   1820.245916  17448.925648    119.365861  7  3  5 132       
PG17  14652.397673   6740.857487 -21087.102213     38.596852  5  5  3 126       
PG18 -18285.754749 -18083.820184   7550.349472   -162.481609  8  6  4  82       
PG19  -8754.451413  22985.635990   9856.534366     32.749268  7  6  3 174       
PG20   3453.305489  17961.801216 -19385.848090    111.148101  5  6  5 154       
PG21 -13481.739508 -10170.876069  20808.941820     59.829001  7  7  7 142       
PG22 -23701.814787 -10744.751060  -5313.546445    211.494186  8  6  6 103       
PG23    -45.762496  26417.367472    383.324966    361.681935  7  4  5 127       
PG24   2354.570260 -17290.475493  20263.648411    105.340017  5  6  4 122       
PG25    533.313945  17116.631179  20706.181000   -178.133062  6  3  7 119       
PG26  10029.634177 -19768.178515  13716.447606    282.512108  5  5  6 128       
PG27  10290.381613  11531.922391  22285.125222    198.888941  5  2  7  82       
PG28  23588.647060  12037.636762  -3320.194319    -20.491985 10  7  9 103       
PG29  -5558.964225 -24448.858921   8929.261249    -42.200406  6  5  4 141       
PG30 -14549.919753 -18340.735059 -12983.886975     83.340788  7  7  8 116       
PG31 -24063.389070   6514.326145  -9122.988743    -24.920874  9  5  5  84       
PG32  -6208.126783  13692.878511 -21495.571889    302.289346  5  8  8 167       
EOF
